NORAD_CAT_ID,OBJECT_NAME,OBJECT_TYPE,EPOCH,MEAN_MOTION,ECCENTRICITY,INCLINATION,RA_OF_ASC_NODE,ARG_OF_PERICENTER,MEAN_ANOMALY,BSTAR,MEAN_MOTION_DOT,MEAN_MOTION_DDOT,TLE_LINE0,TLE_LINE1,TLE_LINE2,SEMIMAJOR_AXIS,PERIOD,APOGEE,PERIGEE,DECAYED
53436.0,STARLINK-4527,PAYLOAD,2024-04-25 11:00:48,15.08832401,8.58e-05,53.2168,290.9465,107.7241,252.3845,-0.00011258,-2.079e-05,0.0,0 STARLINK-4527,1 53436U 22097BA  24116.45889703 -.00002079  00000-0 -11258-3 0  9999,2 53436  53.2168 290.9465 0000858 107.7241 252.3845 15.08832401 95168,6917.904,95.438,540.362,539.175,0.0
53436.0,STARLINK-4527,PAYLOAD,2024-04-25 17:22:21,15.08841809,0.0001226,53.2176,289.7614,87.6387,272.4746,1.9639e-05,2.5e-07,0.0,0 STARLINK-4527,1 53436U 22097BA  24116.72385761  .00000025  00000-0  19639-4 0  9993,2 53436  53.2176 289.7614 0001226  87.6387 272.4746 15.08841809 95688,6917.875,95.437,540.588,538.892,0.0
53436.0,STARLINK-4527,PAYLOAD,2024-04-26 10:51:36,15.08836124,9.42e-05,53.2177,286.4856,93.8324,266.2776,-2.689e-05,-7.16e-06,0.0,0 STARLINK-4527,1 53436U 22097BA  24117.45250570 -.00000716  00000-0 -26890-4 0  9999,2 53436  53.2177 286.4856 0000942  93.8324 266.2776 15.08836124 95313,6917.892,95.438,540.409,539.106,0.0
53436.0,STARLINK-4527,PAYLOAD,2024-04-26 15:37:45,15.08850735,0.0001184,53.2179,285.598,102.3097,257.8027,-0.0001602,-2.837e-05,0.0,0 STARLINK-4527,1 53436U 22097BA  24117.65122128 -.00002837  00000-0 -16020-3 0  9997,2 53436  53.2179 285.5980 0001184 102.3097 257.8027 15.08850735 95347,6917.848,95.437,540.532,538.894,0.0
53436.0,STARLINK-4527,PAYLOAD,2024-04-27 04:20:49,15.08855283,0.0001159,53.2171,283.2166,89.9387,270.1738,0.00013183,1.812e-05,0.0,0 STARLINK-4527,1 53436U 22097BA  24118.18112862  .00001812  00000-0  13183-3 0  9997,2 53436  53.2171 283.2166 0001159  89.9387 270.1738 15.08855283 95423,6917.834,95.437,540.5,538.897,0.0
53436.0,STARLINK-4527,PAYLOAD,2024-04-27 10:42:21,15.08864092,8.89e-05,53.2166,282.0249,95.1962,264.9132,0.00029914,4.479e-05,0.0,0 STARLINK-4527,1 53436U 22097BA  24118.44608321  .00004479  00000-0  29914-3 0  9997,2 53436  53.2166 282.0249 0000889  95.1962 264.9132 15.08864092 95947,6917.807,95.436,540.287,539.057,0.0
53436.0,STARLINK-4527,PAYLOAD,2024-04-27 17:03:55,15.08838401,0.0001696,53.2171,280.838,79.9498,280.1686,-5.0081e-05,-1.085e-05,0.0,0 STARLINK-4527,1 53436U 22097BA  24118.71105697 -.00001085  00000-0 -50081-4 0  9997,2 53436  53.2171 280.8380 0001696  79.9498 280.1686 15.08838401 95507,6917.885,95.438,540.924,538.577,0.0
53436.0,STARLINK-4527,PAYLOAD,2024-04-28 04:11:37,15.08828075,0.0001373,53.2164,278.7584,67.54,292.5737,-7.9411e-05,-1.551e-05,0.0,0 STARLINK-4527,1 53436U 22097BA  24119.17474513 -.00001551  00000-0 -79411-4 0  9990,2 53436  53.2164 278.7584 0001373  67.5400 292.5737 15.08828075 95576,6917.917,95.438,540.732,538.832,0.0
53436.0,STARLINK-4527,PAYLOAD,2024-04-28 13:43:56,15.08831348,0.0001538,53.2156,276.975,64.1004,296.0147,-3.4701e-05,-8.4e-06,0.0,0 STARLINK-4527,1 53436U 22097BA  24119.57218577 -.00000840  00000-0 -34701-4 0  9993,2 53436  53.2156 276.9750 0001538  64.1004 296.0147 15.08831348 96110,6917.907,95.438,540.836,538.708,0.0
53436.0,STARLINK-4527,PAYLOAD,2024-04-28 16:54:42,15.08836466,0.0001225,53.215,276.3779,72.924,287.1886,2.2193e-05,6.5e-07,0.0,0 STARLINK-4527,1 53436U 22097BA  24119.70466237  .00000065  00000-0  22193-4 0  9995,2 53436  53.2150 276.3779 0001225  72.9240 287.1886 15.08836466 95656,6917.891,95.438,540.604,538.909,0.0
53436.0,STARLINK-4527,PAYLOAD,2024-04-29 13:34:43,15.08835137,0.0001484,53.217,272.512,92.9467,267.1695,-0.00012553,-2.285e-05,0.0,0 STARLINK-4527,1 53436U 22097BA  24120.56578626 -.00002285  00000-0 -12553-3 0  9993,2 53436  53.2170 272.5120 0001484  92.9467 267.1695 15.08835137 96264,6917.895,95.438,540.787,538.734,0.0
53436.0,STARLINK-4527,PAYLOAD,2024-04-29 19:56:16,15.0883012,0.0001487,53.2182,271.3231,85.6934,274.4228,7.7274e-05,9.42e-06,0.0,0 STARLINK-4527,1 53436U 22097BA  24120.83075014  .00000942  00000-0  77274-4 0  9994,2 53436  53.2182 271.3231 0001487  85.6934 274.4228 15.08830120 95829,6917.911,95.438,540.804,538.747,0.0
53436.0,STARLINK-4527,PAYLOAD,2024-04-30 13:25:30,15.08840663,0.0001447,53.2173,268.05,93.2941,266.8216,0.00021579,3.148e-05,0.0,0 STARLINK-4527,1 53436U 22097BA  24121.55938352  .00003148  00000-0  21579-3 0  9994,2 53436  53.2173 268.0500 0001447  93.2941 266.8216 15.08840663 95937,6917.878,95.438,540.744,538.742,0.0
53436.0,STARLINK-4527,PAYLOAD,2024-04-30 15:00:53,15.08842835,0.0001386,53.2178,267.7546,87.7114,272.4036,0.00024677,3.642e-05,0.0,0 STARLINK-4527,1 53436U 22097BA  24121.62562266  .00003642  00000-0  24677-3 0  9990,2 53436  53.2178 267.7546 0001386  87.7114 272.4036 15.08842835 96421,6917.872,95.437,540.696,538.778,0.0
53436.0,STARLINK-4527,PAYLOAD,2024-04-30 16:36:16,15.08851499,0.0001365,53.2169,267.4531,90.0343,270.0806,0.00016603,2.356e-05,0.0,0 STARLINK-4527,1 53436U 22097BA  24121.69185817  .00002356  00000-0  16603-3 0  9991,2 53436  53.2169 267.4531 0001365  90.0343 270.0806 15.08851499 95952,6917.845,95.437,540.655,538.766,0.0
53436.0,STARLINK-4527,PAYLOAD,2024-05-01 10:05:31,15.08841429,0.0001564,53.2183,264.1849,93.2097,266.9075,0.00024174,3.562e-05,0.0,0 STARLINK-4527,1 53436U 22097BA  24122.42050306  .00003562  00000-0  24174-3 0  9999,2 53436  53.2183 264.1849 0001564  93.2097 266.9075 15.08841429 96063,6917.876,95.437,540.823,538.659,0.0
53436.0,STARLINK-4527,PAYLOAD,2024-05-01 16:27:03,15.08847411,0.0001676,53.2186,262.9969,98.4636,261.6546,0.00022251,3.256e-05,0.0,0 STARLINK-4527,1 53436U 22097BA  24122.68545787  .00003256  00000-0  22251-3 0  9993,2 53436  53.2186 262.9969 0001676  98.4636 261.6546 15.08847411 96584,6917.858,95.437,540.882,538.563,0.0
53436.0,STARLINK-4527,PAYLOAD,2024-05-02 01:59:19,15.08882342,4.7e-05,53.2169,261.2085,63.3554,296.7487,0.00038526,5.856e-05,0.0,0 STARLINK-4527,1 53436U 22097BA  24123.08286428  .00005856  00000-0  38526-3 0  9992,2 53436  53.2169 261.2085 0000470  63.3554 296.7487 15.08882342 96166,6917.751,95.435,539.941,539.291,0.0
53436.0,STARLINK-4527,PAYLOAD,2024-05-02 13:07:04,15.0884513,0.0001146,53.2164,259.1288,64.6742,295.4369,-8.7322e-05,-1.677e-05,0.0,0 STARLINK-4527,1 53436U 22097BA  24123.54657733 -.00001677  00000-0 -87322-4 0  9992,2 53436  53.2164 259.1288 0001146  64.6742 295.4369 15.08845130 96233,6917.865,95.437,540.522,538.937,0.0
53436.0,STARLINK-4527,PAYLOAD,2024-05-02 14:42:27,15.08847707,0.0001199,53.2157,258.8306,58.399,301.7119,-7.4294e-05,-1.47e-05,0.0,0 STARLINK-4527,1 53436U 22097BA  24123.61281543 -.00001470  00000-0 -74294-4 0  9997,2 53436  53.2157 258.8306 0001199  58.3990 301.7119 15.08847707 96725,6917.857,95.437,540.551,538.892,0.0
53436.0,STARLINK-4527,PAYLOAD,2024-05-03 14:33:14,15.08844663,0.000131,53.2156,254.3707,91.1696,268.9446,-6.2068e-06,-3.87e-06,0.0,0 STARLINK-4527,1 53436U 22097BA  24124.60641305 -.00000387  00000-0 -62068-5 0  9996,2 53436  53.2156 254.3707 0001310  91.1696 268.9446 15.08844663 96874,6917.866,95.437,540.637,538.825,0.0
53436.0,STARLINK-4527,PAYLOAD,2024-05-03 16:08:36,15.08845651,0.0001457,53.2155,254.0739,91.4523,268.6637,-3.4664e-05,-8.4e-06,0.0,0 STARLINK-4527,1 53436U 22097BA  24124.67264713 -.00000840  00000-0 -34664-4 0  9991,2 53436  53.2155 254.0739 0001457  91.4523 268.6637 15.08845651 96405,6917.863,95.437,540.736,538.72,0.0
53436.0,STARLINK-4527,PAYLOAD,2024-05-04 12:48:39,15.08818118,0.0001355,53.2154,250.2091,76.9884,283.1259,-0.00024303,-4.151e-05,0.0,0 STARLINK-4527,1 53436U 22097BA  24125.53378510 -.00004151  00000-0 -24303-3 0  9995,2 53436  53.2154 250.2091 0001355  76.9884 283.1259 15.08818118 96532,6917.947,95.439,540.75,538.875,0.0
53436.0,STARLINK-4527,PAYLOAD,2024-05-05 01:31:44,15.08827127,0.0001433,53.2168,247.8303,79.4783,280.6371,0.00012312,1.671e-05,0.0,0 STARLINK-4527,1 53436U 22097BA  24126.06370813  .00001671  00000-0  12312-3 0  9991,2 53436  53.2168 247.8303 0001433  79.4783 280.6371 15.08827127 96614,6917.92,95.438,540.776,538.793,0.0
53436.0,STARLINK-4527,PAYLOAD,2024-05-05 12:39:25,15.08844159,0.0001383,53.2163,245.7481,77.5677,282.547,0.00033909,5.113e-05,0.0,0 STARLINK-4527,1 53436U 22097BA  24126.52738368  .00005113  00000-0  33909-3 0  9995,2 53436  53.2163 245.7481 0001383  77.5677 282.5470 15.08844159 96680,6917.868,95.437,540.689,538.776,0.0
53436.0,STARLINK-4527,PAYLOAD,2024-05-05 14:14:49,15.08846448,0.0001318,53.2158,245.4506,75.8951,284.2187,0.00046176,7.07e-05,0.0,0 STARLINK-4527,1 53436U 22097BA  24126.59362439  .00007070  00000-0  46176-3 0  9998,2 53436  53.2158 245.4506 0001318  75.8951 284.2187 15.08846448 97175,6917.861,95.437,540.637,538.814,0.0
53436.0,STARLINK-4527,PAYLOAD,2024-05-06 14:05:35,15.08866012,0.0001504,53.2169,240.9902,81.3954,278.7208,0.00077402,0.00012061,0.0,0 STARLINK-4527,1 53436U 22097BA  24127.58721961  .00012061  00000-0  77402-3 0  9999,2 53436  53.2169 240.9902 0001504  81.3954 278.7208 15.08866012 96843,6917.801,95.436,540.706,538.625,0.0
53436.0,STARLINK-4527,PAYLOAD,2024-05-07 12:20:59,15.08845461,0.0001383,53.2174,236.8283,99.4397,260.6751,7.8197e-05,9.57e-06,0.0,0 STARLINK-4527,1 53436U 22097BA  24128.51457996  .00000957  00000-0  78197-4 0  9991,2 53436  53.2174 236.8283 0001383  99.4397 260.6751 15.08845461 96984,6917.864,95.437,540.685,538.772,0.0
53436.0,STARLINK-4527,PAYLOAD,2024-05-07 13:56:23,15.08843419,0.0001311,53.216,236.5273,70.7506,289.3628,4.755e-05,4.69e-06,0.0,0 STARLINK-4527,1 53436U 22097BA  24128.58082194  .00000469  00000-0  47550-4 0  9999,2 53436  53.2160 236.5273 0001311  70.7506 289.3628 15.08843419 97477,6917.87,95.437,540.642,538.828,0.0
53436.0,STARLINK-4527,PAYLOAD,2024-05-07 17:07:09,15.08847468,0.0001219,53.2168,235.9344,95.2555,264.8576,0.00012796,1.75e-05,0.0,0 STARLINK-4527,1 53436U 22097BA  24128.71330011  .00001750  00000-0  12796-3 0  9995,2 53436  53.2168 235.9344 0001219  95.2555 264.8576 15.08847468 97490,6917.858,95.437,540.566,538.879,0.0
